[{"OBJECT_NAME":"STARLINK-32132","OBJECT_ID":"2024-136F","EPOCH":"2026-03-09T10:30:35.473248","MEAN_MOTION":15.30217391,"ECCENTRICITY":0.00010133,"INCLINATION":53.16,"RA_OF_ASC_NODE":77.0019,"ARG_OF_PERICENTER":72.716,"MEAN_ANOMALY":287.3952,"EPHEMERIS_TYPE":0,"CLASSIFICATION_TYPE":"U","NORAD_CAT_ID":60334,"ELEMENT_SET_NO":999,"REV_AT_EPOCH":8962,"BSTAR":-0.00012851986,"MEAN_MOTION_DOT":-4.165e-5,"MEAN_MOTION_DDOT":0},{"OBJECT_NAME":"CZ-6A DEB","OBJECT_ID":"2024-140BH","EPOCH":"2026-03-09T12:42:23.031936","MEAN_MOTION":15.05550408,"ECCENTRICITY":0.0121353,"INCLINATION":89.148,"RA_OF_ASC_NODE":290.4372,"ARG_OF_PERICENTER":169.3672,"MEAN_ANOMALY":191.0177,"EPHEMERIS_TYPE":0,"CLASSIFICATION_TYPE":"U","NORAD_CAT_ID":60656,"ELEMENT_SET_NO":999,"REV_AT_EPOCH":8464,"BSTAR":0.002338,"MEAN_MOTION_DOT":0.00039913,"MEAN_MOTION_DDOT":0}]
